56719,ONEWEB-0683,2023,109.46,-1.0,+,87.91,Active,0,LEO,USA,UK,Unknown,Unknown,Unknown,1 56719U 23068K   24315.92387677  .00000203  00000+0  50595-3 0  9992,2 56719  87.9105  15.2854 0001537 105.4524 254.6776 13.15550998 72734,13.15550998,0.0001537,LEO
56720,ONEWEB-0684,2023,109.46,-1.0,+,87.91,Active,0,LEO,USA,UK,Unknown,Unknown,Unknown,1 56720U 23068L   24315.93179210  .00000152  00000+0  36897-3 0  9999,2 56720  87.9081  15.3563 0002379  60.3484 299.7883 13.15545603 72563,13.15545603,0.0002379,LEO
56721,ONEWEB-0686,2023,109.37,-1.0,+,87.91,Active,0,LEO,USA,UK,Unknown,Unknown,Unknown,1 56721U 23068M   24316.49899486 -.00000025  00000+0 -99139-4 0  9996,2 56721  87.9099 344.9028 0001503  88.9912 271.1391 13.16598589 75046,13.16598589,0.0001503,LEO
56722,ONEWEB-0694,2023,109.4,-1.0,+,87.91,Active,0,LEO,USA,UK,Unknown,Unknown,Unknown,1 56722U 23068N   24316.54160099  .00028558  00000+0  74703-1 0  9990,2 56722  87.9097 344.8148 0003443  86.3011 273.8513 13.16349097 75104,13.16349097,0.0003443,LEO
56723,ONEWEB-0696,2023,109.46,-1.0,+,87.91,Active,0,LEO,USA,UK,Unknown,Unknown,Unknown,1 56723U 23068P   24315.88901264 -.00000050  00000+0 -16594-3 0  9999,2 56723  87.9110  15.3430 0002072  94.9490 265.1877 13.15550960 73374,13.1555096,0.0002072,LEO
56724,ONEWEB-0703,2023,109.46,-1.0,+,87.91,Active,0,LEO,USA,UK,Unknown,Unknown,Unknown,1 56724U 23068Q   24316.12669367 -.00000046  00000+0 -15734-3 0  9993,2 56724  87.9109  15.3161 0003011  88.8448 271.3027 13.15549067 72598,13.15549067,0.0003011,LEO
56725,ONEWEB-0721,2023,98.9,-1.0,P,86.67,Active,0,LEO,USA,UK,Unknown,Unknown,Unknown,1 56725U 23068R   24314.37658229 -.00092339  00000+0 -21281-1 0  9992,2 56725  86.6724 275.6471 0011656 107.4135 252.8348 14.56041169 80010,14.56041169,0.0011656,LEO
61594,ONEWEB-0015,2024,97.1,-1.0,+,86.58,Active,0,LEO,USA,UK,Unknown,Unknown,Unknown,1 61594U 24188A   24316.58479438  .00005525  00000+0  67629-3 0  9991,2 61594  86.5771 160.8978 0006518 128.0818 232.0993 14.83031534  6284,14.83031534,0.0006518,LEO
